IDEFIX & ARIANE 42P R/B 
1 27422U 02021B   26039.26910424  .00000387  00000+0  16368-3 0  9994
2 27422  98.5841 338.2328 0010684 275.5135  84.4830 14.31004738239811
AQUA                    
1 27424U 02022A   26039.26846994  .00001382  00000+0  28606-3 0  9991
2 27424  98.4123   6.1102 0001522  53.2198  83.1220 14.61903165264437
CZ-4B R/B               
1 27432U 02024C   26039.14318892  .00000041  00000+0  43651-4 0  9999
2 27432  98.8904  92.6893 0051138 106.7388 267.7321 14.14542238225063
MIDORI II (ADEOS-II)    
1 27597U 02056A   26038.91142852  .00000418  00000+0  18230-3 0  9993
2 27597  98.7717 357.1939 0002129  84.7966 275.3458 14.29262129206046
H-2A R/B                
1 27601U 02056E   26038.90861281  .00000396  00000+0  15384-3 0  9994
2 27601  98.3149   0.4180 0069033 250.1156 173.7165 14.33739178209845
CZ-4B R/B               
1 28059U 03049C   26038.95066140  .00000613  00000+0  15227-3 0  9999
2 28059  98.6848  32.6968 0047504 323.6614  36.1359 14.54986943182278
CZ-2C R/B               
1 28222U 04012C   26039.08998356  .00051605  00000+0  60638-3 0  9993
2 28222  97.7307 101.6490 0016002  62.4894 297.7986 15.61147170199655
SL-16 R/B               
1 28353U 04021B   26039.11127865  .00000104  00000+0  78784-4 0  9991
2 28353  70.9999 294.5683 0002912  83.8218 276.3236 14.14589821118650
CZ-4B R/B               
1 28415U 04035C   26039.06232761  .00009060  00000+0  32351-3 0  9990
2 28415  97.3549  73.6661 0034167  74.8659 285.6356 15.28514030175386
CZ-2C R/B               
1 28480U 04046B   26039.24591834  .00000188  00000+0  85404-4 0  9993
2 28480  98.1995 316.0585 0138287 241.7625 116.9539 14.26981713104303
ARIANE 5 R/B            
1 28499U 04049H   26039.05734454  .00001269  00000+0  14562-3 0  9999
2 28499  98.2579 206.4158 0085506  87.2037 273.8960 14.85204764141395
CZ-2D R/B               
1 28738U 05024B   26038.98680851  .00040172  00000+0  54438-3 0  9993
2 28738  97.3623  53.1046 0007377 118.5696 241.6303 15.57548309135150
